FENGYUN 1C DEB          
1 29936U 99025JJ  24365.76516168  .00001921  00000+0  64311-3 0  9994
2 29936  98.6302 112.7406 0115712 133.9467 227.1336 14.34771443939542
FENGYUN 1C DEB          
1 29937U 99025JK  24366.51812618  .00000264  00000+0  19274-3 0  9995
2 29937  98.8346  31.5681 0031022 268.5812 234.0481 14.04265802920762
FENGYUN 1C DEB          
1 29938U 99025JL  24366.89901500  .00000646  00000+0  40919-3 0  9990
2 29938  98.7798   0.2816 0033254 201.4878 197.5804 14.07183327921928
FENGYUN 1C DEB          
1 29939U 99025JM  24366.80064337  .00000312  00000+0  18959-3 0  9999
2 29939  98.7041  10.3318 0067108  43.6899 129.2865 14.11965702925780
FENGYUN 1C DEB          
1 29940U 99025JN  24366.71050669  .00004216  00000+0  20385-2 0  9996
2 29940  98.6333  19.9379 0075117  16.8600  48.1422 14.17560141925836
FENGYUN 1C DEB          
1 29942U 99025JQ  24366.60942961  .00006141  00000+0  24243-2 0  9997
2 29942  98.6727  68.6954 0051516 210.1718 149.6494 14.28669572929235
FENGYUN 1C DEB          
1 29943U 99025JR  24366.78388583  .00000330  00000+0  21140-3 0  9999
2 29943  98.7364  18.8989 0036515 126.3158  48.1740 14.09571321924322
FENGYUN 1C DEB          
1 29944U 99025JS  24366.62211962  .00019242  00000+0  19345-2 0  9994
2 29944  99.0143 251.1101 0191593 246.8018 130.3021 14.78556603953242
FENGYUN 1C DEB          
1 29945U 99025JT  24366.86395242  .00000371  00000+0  25426-3 0  9996
2 29945  98.8264  34.2301 0030134 250.0142 283.7832 14.05379479921190
FENGYUN 1C DEB          
1 29946U 99025JU  24366.96308546  .00001131  00000+0  67286-3 0  9994
2 29946  98.7620   2.8974 0080501 237.6638 150.8990 14.07798960921817
FENGYUN 1C DEB          
1 29947U 99025JV  24366.59185117  .00000583  00000+0  40224-3 0  9994
2 29947  98.8780  40.4706 0040479   7.3677 145.9892 14.02791666918961
FENGYUN 1C DEB          
1 29948U 99025JW  24366.75046617  .00000513  00000+0  32812-3 0  9991
2 29948  98.7952 356.2505 0085545 124.8883  47.6628 14.05931603921143
FENGYUN 1C DEB          
1 29949U 99025JX  24366.50155135  .00000179  00000+0  13296-3 0  9994
2 29949  98.7859  26.5269 0023848 195.8028 306.9329 14.06741424922399
FENGYUN 1C DEB          
1 29950U 99025JY  24366.36121902  .00000489  00000+0  29915-3 0  9994
2 29950  98.7830  40.3330 0033931 142.3331 229.9753 14.10120370924091
FENGYUN 1C DEB          
1 29953U 99025KB  24365.74239003  .00000913  00000+0  73289-3 0  9995
2 29953  98.9138   0.2820 0107729 132.6897  41.6771 13.90413370910391
FENGYUN 1C DEB          
1 29954U 99025KC  24366.16106354  .00006517  00000+0  23857-2 0  9996
2 29954 100.1515 338.7760 0077368 162.3707 198.0183 14.31624173932236
FENGYUN 1C DEB          
1 29955U 99025KD  24366.38304725  .00010447  00000+0  37283-2 0  9998
2 29955  99.3011  54.2806 0008656 182.5525 246.2612 14.34327814930892
FENGYUN 1C DEB          
1 29956U 99025KE  24366.83171088  .00000377  00000+0  25292-3 0  9992
2 29956  98.8324  38.9437 0052577 267.4466 268.1660 14.06057328921885
FENGYUN 1C DEB          
1 29957U 99025KF  24366.27907331  .00032490  00000+0  10680-1 0  9993
2 29957  98.9217 110.2989 0046365 129.5751 259.6490 14.37505514924908
FENGYUN 1C DEB          
1 29958U 99025KG  24366.79768202  .00001697  00000+0  90530-3 0  9992
2 29958  98.6888  25.0130 0054540 239.5022 120.0759 14.13864367925614
FENGYUN 1C DEB          
1 29959U 99025KH  24366.85847142  .00001056  00000+0  66806-3 0  9999
2 29959  98.8488  40.2905 0041999 216.2721 318.3913 14.05750597920804
FENGYUN 1C DEB          
1 29960U 99025KJ  24366.76389999  .00002267  00000+0  11340-2 0  9999
2 29960  98.5876 358.1584 0092444 198.9011 335.4240 14.15495748925585
FENGYUN 1C DEB          
1 29961U 99025KK  24366.88506613  .00001453  00000+0  61297-3 0  9990
2 29961  98.9940 240.0978 0074460 222.4085 137.1325 14.25791977933809
FENGYUN 1C DEB          
1 29962U 99025KL  24366.83610591  .00000716  00000+0  43046-3 0  9990
2 29962  98.7790  19.1493 0111676 115.1565  58.1097 14.06822467921331
FENGYUN 1C DEB          
1 29963U 99025KM  24366.87784285  .00006040  00000+0  24178-2 0  9997
2 29963  99.0367 233.2031 0051425 222.5600 268.2252 14.27995923932049
FENGYUN 1C DEB          
1 29964U 99025KN  24366.36093824  .00003568  00000+0  22133-2 0  9995
2 29964  98.4011 230.1751 0133543 166.0264 194.4657 14.01354166914638
FENGYUN 1C DEB          
1 29965U 99025KP  24366.84600875  .00000858  00000+0  60864-3 0  9992
2 29965  98.9479   5.0626 0144934 298.5837 181.5204 13.95509156914510
FENGYUN 1C DEB          
1 29966U 99025KQ  24366.75349524  .00003893  00000+0  16780-2 0  9993
2 29966  99.4984 179.1230 0039693 245.5266 114.1768 14.24773714931146
FENGYUN 1C DEB          
1 29967U 99025KR  24365.68423556  .00011516  00000+0  52121-2 0  9993
2 29967  98.8855  74.1127 0081938 211.3807 301.1179 14.20357460922895
FENGYUN 1C DEB          
1 29968U 99025KS  24366.47786872  .00000715  00000+0  43863-3 0  9998
2 29968  98.7815 359.6081 0089604 248.2662 276.0181 14.06924509921796
