OBJECT_NAME,OBJECT_ID,EPOCH,MEAN_MOTION,ECCENTRICITY,INCLINATION,RA_OF_ASC_NODE,ARG_OF_PERICENTER,MEAN_ANOMALY,EPHEMERIS_TYPE,CLASSIFICATION_TYPE,NORAD_CAT_ID,ELEMENT_SET_NO,REV_AT_EPOCH,BSTAR,MEAN_MOTION_DOT,MEAN_MOTION_DDOT
FENGYUN 1C DEB,1999-025JJ,2024-12-30T18:21:49.969152,14.34771443,.0115712,98.6302,112.7406,133.9467,227.1336,0,U,29936,999,93954,.64311E-3,.1921E-4,0
FENGYUN 1C DEB,1999-025JK,2024-12-31T12:26:06.101952,14.04265802,.0031022,98.8346,31.5681,268.5812,234.0481,0,U,29937,999,92076,.19274E-3,.264E-5,0
FENGYUN 1C DEB,1999-025JL,2024-12-31T21:34:34.896000,14.07183327,.0033254,98.7798,0.2816,201.4878,197.5804,0,U,29938,999,92192,.40919E-3,.646E-5,0
FENGYUN 1C DEB,1999-025JM,2024-12-31T19:12:55.587168,14.11965702,.0067108,98.7041,10.3318,43.6899,129.2865,0,U,29939,999,92578,.18959E-3,.312E-5,0
FENGYUN 1C DEB,1999-025JN,2024-12-31T17:03:07.778016,14.17560141,.0075117,98.6333,19.9379,16.8600,48.1422,0,U,29940,999,92583,.20385E-2,.4216E-4,0
FENGYUN 1C DEB,1999-025JQ,2024-12-31T14:37:34.718304,14.28669572,.0051516,98.6727,68.6954,210.1718,149.6494,0,U,29942,999,92923,.24243E-2,.6141E-4,0
FENGYUN 1C DEB,1999-025JR,2024-12-31T18:48:47.735712,14.09571321,.0036515,98.7364,18.8989,126.3158,48.1740,0,U,29943,999,92432,.2114E-3,.33E-5,0
FENGYUN 1C DEB,1999-025JS,2024-12-31T14:55:51.135168,14.78556603,.0191593,99.0143,251.1101,246.8018,130.3021,0,U,29944,999,95324,.19345E-2,.19242E-3,0
FENGYUN 1C DEB,1999-025JT,2024-12-31T20:44:05.489088,14.05379479,.0030134,98.8264,34.2301,250.0142,283.7832,0,U,29945,999,92119,.25426E-3,.371E-5,0
FENGYUN 1C DEB,1999-025JU,2024-12-31T23:06:50.583744,14.07798960,.0080501,98.7620,2.8974,237.6638,150.8990,0,U,29946,999,92181,.67286E-3,.1131E-4,0
FENGYUN 1C DEB,1999-025JV,2024-12-31T14:12:15.941088,14.02791666,.0040479,98.8780,40.4706,7.3677,145.9892,0,U,29947,999,91896,.40224E-3,.583E-5,0
FENGYUN 1C DEB,1999-025JW,2024-12-31T18:00:40.277088,14.05931603,.0085545,98.7952,356.2505,124.8883,47.6628,0,U,29948,999,92114,.32812E-3,.513E-5,0
FENGYUN 1C DEB,1999-025JX,2024-12-31T12:02:14.036640,14.06741424,.0023848,98.7859,26.5269,195.8028,306.9329,0,U,29949,999,92239,.13296E-3,.179E-5,0
FENGYUN 1C DEB,1999-025JY,2024-12-31T08:40:09.323328,14.10120370,.0033931,98.7830,40.3330,142.3331,229.9753,0,U,29950,999,92409,.29915E-3,.489E-5,0
FENGYUN 1C DEB,1999-025KB,2024-12-30T17:49:02.498592,13.90413370,.0107729,98.9138,0.2820,132.6897,41.6771,0,U,29953,999,91039,.73289E-3,.913E-5,0
FENGYUN 1C DEB,1999-025KC,2024-12-31T03:51:55.889856,14.31624173,.0077368,100.1515,338.7760,162.3707,198.0183,0,U,29954,999,93223,.23857E-2,.6517E-4,0
FENGYUN 1C DEB,1999-025KD,2024-12-31T09:11:35.282400,14.34327814,.0008656,99.3011,54.2806,182.5525,246.2612,0,U,29955,999,93089,.37283E-2,.10447E-3,0
FENGYUN 1C DEB,1999-025KE,2024-12-31T19:57:39.820032,14.06057328,.0052577,98.8324,38.9437,267.4466,268.1660,0,U,29956,999,92188,.25292E-3,.377E-5,0
FENGYUN 1C DEB,1999-025KF,2024-12-31T06:41:51.933984,14.37505514,.0046365,98.9217,110.2989,129.5751,259.6490,0,U,29957,999,92490,.1068E-1,.3249E-3,0
FENGYUN 1C DEB,1999-025KG,2024-12-31T19:08:39.726528,14.13864367,.005454,98.6888,25.0130,239.5022,120.0759,0,U,29958,999,92561,.9053E-3,.1697E-4,0
FENGYUN 1C DEB,1999-025KH,2024-12-31T20:36:11.930688,14.05750597,.0041999,98.8488,40.2905,216.2721,318.3913,0,U,29959,999,92080,.66806E-3,.1056E-4,0
FENGYUN 1C DEB,1999-025KJ,2024-12-31T18:20:00.959136,14.15495748,.0092444,98.5876,358.1584,198.9011,335.4240,0,U,29960,999,92558,.1134E-2,.2267E-4,0
FENGYUN 1C DEB,1999-025KK,2024-12-31T21:14:29.713632,14.25791977,.007446,98.9940,240.0978,222.4085,137.1325,0,U,29961,999,93380,.61297E-3,.1453E-4,0
FENGYUN 1C DEB,1999-025KL,2024-12-31T20:03:59.550624,14.06822467,.0111676,98.7790,19.1493,115.1565,58.1097,0,U,29962,999,92133,.43046E-3,.716E-5,0
FENGYUN 1C DEB,1999-025KM,2024-12-31T21:04:05.622240,14.27995923,.0051425,99.0367,233.2031,222.5600,268.2252,0,U,29963,999,93204,.24178E-2,.604E-4,0
FENGYUN 1C DEB,1999-025KN,2024-12-31T08:39:45.063936,14.01354166,.0133543,98.4011,230.1751,166.0264,194.4657,0,U,29964,999,91463,.22133E-2,.3568E-4,0
FENGYUN 1C DEB,1999-025KP,2024-12-31T20:18:15.156000,13.95509156,.0144934,98.9479,5.0626,298.5837,181.5204,0,U,29965,999,91451,.60864E-3,.858E-5,0
FENGYUN 1C DEB,1999-025KQ,2024-12-31T18:05:01.988736,14.24773714,.0039693,99.4984,179.1230,245.5266,114.1768,0,U,29966,999,93114,.1678E-2,.3893E-4,0
FENGYUN 1C DEB,1999-025KR,2024-12-30T16:25:17.952384,14.20357460,.0081938,98.8855,74.1127,211.3807,301.1179,0,U,29967,999,92289,.52121E-2,.11516E-3,0
FENGYUN 1C DEB,1999-025KS,2024-12-31T11:28:07.857408,14.06924509,.0089604,98.7815,359.6081,248.2662,276.0181,0,U,29968,999,92179,.43863E-3,.715E-5,0
